ION SCV-008             
1 55051U 23001AU  26068.82429008  .00008336  00000+0  31423-3 0  9992
2 55051  97.5676 163.6060 0015192   8.5420 351.6074 15.27226640176169
STARLINK-32332          
1 62490U 25003D   26067.99282164  .00034190  00000+0  12452-2 0  9995
2 62490  43.0049 293.0230 0002782 264.0944  95.9590 15.27604214 66540
